     2.10           N: GPS NAV DATA                         RINEX VERSION / TYPE
sbf2rin-10.1.1                          02-SEP-20 00:00     PGM / RUN BY / DATE 
    6.5193E-09  1.4901E-08 -5.9605E-08 -1.1921E-07          ION ALPHA           
    7.7824E+04  3.2768E+04 -6.5536E+04 -1.9661E+05          ION BETA            
    0.000000000000E+00 8.881784197001E-16   405504     2121 DELTA-UTC: A0,A1,T,W
    18                                                      LEAP SECONDS        
                                                            END OF HEADER       
08 20  9  1  6  0  0.0-4.642130807042E-05-1.250555214938E-12 0.000000000000E+00
    1.600000000000E+01 1.003437500000E+02 4.090527529748E-09 9.327788914706E-02
    5.044043064117E-06 5.432250560261E-03 1.062452793121E-05 5.153721296310E+03
    1.944000000000E+05 1.173466444016E-07 2.504558571318E-01 1.117587089539E-08
    9.695135748976E-01 1.791562500000E+02-6.233338720149E-02-7.875685196758E-09
   -1.178620522847E-11 1.000000000000E+00 2.121000000000E+03 0.000000000000E+00
    2.000000000000E+00 0.000000000000E+00 5.122274160385E-09 1.600000000000E+01
    1.895880000000E+05 4.000000000000E+00
30 20  9  1  6  0  0.0-2.933107316494E-04-7.275957614183E-12 0.000000000000E+00
    3.300000000000E+01 1.978125000000E+01 5.597018852587E-09-2.956572826634E+00
    1.054257154465E-06 4.781532101333E-03 4.520639777184E-06 5.153590236664E+03
    1.944000000000E+05-6.519258022308E-08-1.796322790043E+00-5.401670932770E-08
    9.376194972156E-01 2.846562500000E+02-2.808747921522E+00-8.506782913082E-09
    2.675111429129E-10 1.000000000000E+00 2.121000000000E+03 0.000000000000E+00
    2.000000000000E+00 0.000000000000E+00 3.725290298462E-09 3.300000000000E+01
    1.927980000000E+05 4.000000000000E+00
09 20  9  1  8  0  0.0-2.793390303850E-04-5.798028723802E-12 0.000000000000E+00
    6.400000000000E+01-6.531250000000E+00 4.336252050875E-09 1.412025024510E+00
   -2.887099981308E-07 1.700531924143E-03 1.210346817970E-05 5.153670412064E+03
    2.016000000000E+05 2.980232238770E-08-2.891240485166E+00 9.313225746155E-09
    9.533197242216E-01 1.407187500000E+02 1.765555257298E+00-7.892828767999E-09
    5.260933424708E-10 1.000000000000E+00 2.121000000000E+03 0.000000000000E+00
    2.000000000000E+00 0.000000000000E+00 1.396983861923E-09 6.400000000000E+01
    1.944180000000E+05 4.000000000000E+00
04 20  9  1  8  0  0.0-1.310212537646E-04-4.206412995700E-12 0.000000000000E+00
    1.390000000000E+02 3.000000000000E+00 4.205532320159E-09 2.274675200095E-01
    1.862645149231E-07 8.119967533275E-04 1.171976327896E-05 5.153643444061E+03
    2.016000000000E+05 2.793967723846E-08-2.842580071613E+00 6.705522537231E-08
    9.605388694537E-01 1.532187500000E+02-2.800380673793E+00-7.823897325299E-09
    5.678807973718E-10 1.000000000000E+00 2.121000000000E+03 0.000000000000E+00
    2.000000000000E+00 0.000000000000E+00-4.190951585770E-09 3.950000000000E+02
    1.944180000000E+05 4.000000000000E+00
16 20  9  1  8  0  0.0-2.032434567809E-04-5.002220859751E-12 0.000000000000E+00
    4.700000000000E+01-2.875000000000E+01 4.276606709264E-09 1.855471897589E+00
   -1.419335603714E-06 1.153531763703E-02 9.952113032341E-06 5.153564243317E+03
    2.016000000000E+05-2.924352884293E-07-6.908717877773E-01 8.009374141693E-08
    9.772311685035E-01 1.999687500000E+02 6.276390907046E-01-7.808539542729E-09
   -5.196645032553E-10 1.000000000000E+00 2.121000000000E+03 0.000000000000E+00
    2.000000000000E+00 0.000000000000E+00-1.071020960808E-08 4.700000000000E+01
    1.944180000000E+05 4.000000000000E+00
27 20  9  1  8  0  0.0-3.850804641843E-04-9.094947017729E-12 0.000000000000E+00
    6.800000000000E+01 9.231250000000E+01 4.066240803822E-09 9.991938683896E-01
    5.003064870834E-06 8.331089280546E-03 1.020729541779E-05 5.153674659729E+03
    2.016000000000E+05 0.000000000000E+00 2.654553449149E-01 1.173466444016E-07
    9.779763511777E-01 1.907500000000E+02 5.781195346220E-01-7.863898991529E-09
   -2.964409193827E-11 1.000000000000E+00 2.121000000000E+03 0.000000000000E+00
    2.000000000000E+00 0.000000000000E+00 1.862645149231E-09 6.800000000000E+01
    1.944180000000E+05 4.000000000000E+00
07 20  9  1  8  0  0.0-3.628875128925E-04-8.299139153678E-12 0.000000000000E+00
    5.100000000000E+01 1.896875000000E+01 5.132713798132E-09-1.865421232705E+00
    7.972121238708E-07 1.420093886554E-02 4.053115844727E-06 5.153636363983E+03
    2.016000000000E+05 1.695007085800E-07-1.817599998701E+00-1.080334186554E-07
    9.523424422796E-01 2.910312500000E+02-2.368239670505E+00-8.231771457751E-09
    4.500187450871E-10 1.000000000000E+00 2.121000000000E+03 0.000000000000E+00
    2.000000000000E+00 0.000000000000E+00-1.117587089539E-08 5.100000000000E+01
    1.944180000000E+05 4.000000000000E+00
08 20  9  1  8  0  0.0-4.643062129617E-05-1.250555214938E-12 0.000000000000E+00
    1.700000000000E+01 9.350000000000E+01 4.199103480943E-09 1.143554182650E+00
    5.012378096581E-06 5.431757308543E-03 1.035630702972E-05 5.153719766617E+03
    2.016000000000E+05 6.332993507385E-08 2.503992626829E-01 4.656612873077E-08
    9.695134783451E-01 1.804062500000E+02-6.246044309959E-02-7.860327414187E-09
   -3.250135381184E-11 1.000000000000E+00 2.121000000000E+03 0.000000000000E+00
    2.000000000000E+00 0.000000000000E+00 5.122274160385E-09 1.700000000000E+01
    1.944180000000E+05 4.000000000000E+00
30 20  9  1  8  0  0.0-2.933628857136E-04-7.275957614183E-12 0.000000000000E+00
    3.400000000000E+01 1.862500000000E+01 5.537730668710E-09-1.906354066773E+00
    6.724148988724E-07 4.781678086147E-03 4.278495907784E-06 5.153589899063E+03
    2.016000000000E+05 4.097819328308E-08-1.796384690496E+00-6.146728992462E-08
    9.376215218942E-01 2.850000000000E+02-2.808726773578E+00-8.560713730946E-09
    3.392998474863E-10 1.000000000000E+00 2.121000000000E+03 0.000000000000E+00
    2.000000000000E+00 0.000000000000E+00 3.725290298462E-09 3.400000000000E+01
    1.944180000000E+05 4.000000000000E+00
26 20  9  1  8  0  0.0 2.712737768888E-04 6.480149750132E-12 0.000000000000E+00
    3.200000000000E+01-3.818750000000E+01 5.036281209899E-09 2.923252460879E+00
   -1.890584826469E-06 4.900441039354E-03 8.413568139076E-06 5.153669628143E+03
    2.016000000000E+05-9.685754776001E-08-8.169271376886E-01-1.862645149231E-09
    9.452907645947E-01 2.099375000000E+02 1.998275320302E-01-8.114623720935E-09
   -4.746626287466E-10 1.000000000000E+00 2.121000000000E+03 0.000000000000E+00
    2.000000000000E+00 0.000000000000E+00 6.984919309616E-09 3.200000000000E+01
    1.944180000000E+05 4.000000000000E+00
03 20  9  1  8  0  0.0-2.865842543542E-04-1.080024958355E-11 0.000000000000E+00
    4.200000000000E+01-1.252812500000E+02 4.168387915802E-09-2.296788421085E+00
   -6.372109055519E-06 3.194098826498E-03 7.385388016701E-06 5.153764135361E+03
    2.016000000000E+05-2.793967723846E-08 2.361630992210E+00-2.048909664154E-08
    9.667146264016E-01 2.398750000000E+02 8.514806658504E-01-7.974975046864E-09
   -3.743013054375E-10 1.000000000000E+00 2.121000000000E+03 0.000000000000E+00
    2.000000000000E+00 0.000000000000E+00 1.862645149231E-09 4.200000000000E+01
    1.944180000000E+05 4.000000000000E+00
05 20  9  1  8  0  0.0-2.009933814406E-05-7.958078640513E-13 0.000000000000E+00
    8.200000000000E+01-1.247500000000E+02 4.601977405117E-09 1.747822772291E+00
   -6.528571248055E-06 6.093775853515E-03 6.429851055145E-06 5.153731313705E+03
    2.016000000000E+05-2.421438694000E-08 2.328417662319E+00-6.705522537231E-08
    9.536022137027E-01 2.567500000000E+02 8.606585164875E-01-8.275701859057E-09
   -4.389468553270E-10 1.000000000000E+00 2.121000000000E+03 0.000000000000E+00
    2.000000000000E+00 0.000000000000E+00-1.117587089539E-08 8.200000000000E+01
    1.945860000000E+05 4.000000000000E+00
11 20  9  1  8  0  0.0-1.766709610820E-04 1.057287590811E-11 0.000000000000E+00
    2.500000000000E+01 1.220312500000E+02 5.705951961517E-09-1.688017300216E+00
    6.465241312981E-06 1.600910408888E-02 4.466623067856E-06 5.153723453522E+03
    2.016000000000E+05-2.644956111908E-07 8.403551884867E-01 2.887099981308E-07
    9.133053335302E-01 2.712187500000E+02 2.035319125634E+00-8.868226540089E-09
    2.189376910622E-10 1.000000000000E+00 2.121000000000E+03 0.000000000000E+00
    2.000000000000E+00 0.000000000000E+00-1.210719347000E-08 2.500000000000E+01
    1.949460000000E+05 4.000000000000E+00
21 20  9  1  8  0  0.0 4.219962283969E-05 4.320099833421E-12 0.000000000000E+00
    1.000000000000E+01 5.550000000000E+01 4.833772774610E-09 2.119135118118E+00
    2.624467015266E-06 2.379393321462E-02 6.817281246185E-07 5.155052879333E+03
    2.016000000000E+05 3.557652235031E-07 1.244726978389E+00-2.607703208923E-08
    9.539566085333E-01 3.518750000000E+02-1.295193295554E+00-8.164625803722E-09
   -1.014327965117E-10 1.000000000000E+00 2.121000000000E+03 0.000000000000E+00
    2.000000000000E+00 0.000000000000E+00-1.024454832077E-08 1.000000000000E+01
    1.972020000000E+05 4.000000000000E+00
28 20  9  1  8  0  0.0 6.835134699941E-04-4.206412995700E-12 0.000000000000E+00
    4.300000000000E+01-3.484375000000E+01 4.199460638678E-09 1.764770003834E+00
   -1.978129148483E-06 1.841031678487E-02 9.847804903984E-06 5.153665004730E+03
    2.016000000000E+05 3.390014171600E-07-6.871998531580E-01-3.017485141754E-07
    9.762765661805E-01 1.953437500000E+02-1.398574578256E+00-7.593530586743E-09
   -5.868101572842E-10 1.000000000000E+00 2.121000000000E+03 0.000000000000E+00
    2.800000000000E+00 0.000000000000E+00-1.117587089539E-08 4.300000000000E+01
    1.973160000000E+05 4.000000000000E+00
